STARLINK-32374          
1 62145U 24224G   26068.26300344  .00035289  00000+0  12854-2 0  9994
2 62145  43.0000 160.6086 0002018 256.0897 103.9730 15.27589886 72418
FLOCK 4G-15             
1 62678U 25009BX  26068.71779869  .00012647  00000+0  47575-3 0  9991
2 62678  97.4054 151.1927 0003699 316.8208  43.2740 15.27266411121358
